ORBCOMM FM33            
1 25983U 99065D   24129.69139649  .00001433  00000+0  51933-3 0  9995
2 25983  45.0284 118.5947 0007962 199.9812 331.7165 14.37652228277800
ORBCOMM FM36            
1 25984U 99065E   24129.90389874  .00001419  00000+0  53701-3 0  9996
2 25984  45.0391 203.0626 0001401  57.2922 302.8061 14.35548743276272
ORBCOMM FM35            
1 25985U 99065F   24130.50224532  .00001319  00000+0  50674-3 0  9999
2 25985  45.0392 202.8836 0004127 204.5292 155.5360 14.35126839276946
ORBCOMM FM34            
1 25986U 99065G   24129.56766249  .00001329  00000+0  51070-3 0  9992
2 25986  45.0386 207.8256 0002653 146.9341 213.1673 14.35092908276731
ORBCOMM FM38            
1 33060U 08031A   24129.26708468  .00003245  00000+0  47903-3 0  9992
2 33060  48.4410  79.3981 0005099 103.0369 257.1114 14.77493808854792
ORBCOMM FM41            
1 33061U 08031B   24130.28989934  .00003306  00000+0  49048-3 0  9996
2 33061  48.4445  81.1711 0004284  92.0002  71.0093 14.77223953854880
ORBCOMM FM29            
1 33062U 08031C   24130.13020549  .00002982  00000+0  44595-3 0  9990
2 33062  48.4393  89.9629 0006116  89.6950   5.4156 14.77154276854722
ORBCOMM FM39            
1 33063U 08031D   24130.21218973  .00002812  00000+0  43193-3 0  9995
2 33063  48.4398 110.0814 0007107  63.7291 296.4352 14.76164342854467
